[{"OBJECT_NAME":"STARLINK-35156","OBJECT_ID":"2025-207R","EPOCH":"2026-03-09T17:48:37.226592","MEAN_MOTION":15.05635725,"ECCENTRICITY":1.488e-5,"INCLINATION":97.6035,"RA_OF_ASC_NODE":138.7823,"ARG_OF_PERICENTER":115.2803,"MEAN_ANOMALY":244.8439,"EPHEMERIS_TYPE":0,"CLASSIFICATION_TYPE":"U","NORAD_CAT_ID":65607,"ELEMENT_SET_NO":999,"REV_AT_EPOCH":2827,"BSTAR":0.00084245249,"MEAN_MOTION_DOT":0.00012111,"MEAN_MOTION_DDOT":0},{"OBJECT_NAME":"COSMOS 2251 DEB","OBJECT_ID":"1993-036HX","EPOCH":"2026-03-09T21:31:03.673056","MEAN_MOTION":15.04193551,"ECCENTRICITY":0.00046843,"INCLINATION":74.0171,"RA_OF_ASC_NODE":332.1487,"ARG_OF_PERICENTER":332.3762,"MEAN_ANOMALY":27.7177,"EPHEMERIS_TYPE":0,"CLASSIFICATION_TYPE":"U","NORAD_CAT_ID":34036,"ELEMENT_SET_NO":999,"REV_AT_EPOCH":89876,"BSTAR":0.0040391987,"MEAN_MOTION_DOT":0.00056541,"MEAN_MOTION_DDOT":0}]
